[{"OBJECT_NAME":"STARLINK-33780","OBJECT_ID":"2025-069AC","EPOCH":"2026-03-09T11:23:59.484192","MEAN_MOTION":15.30188672,"ECCENTRICITY":0.00012135,"INCLINATION":53.1585,"RA_OF_ASC_NODE":143.3268,"ARG_OF_PERICENTER":77.6329,"MEAN_ANOMALY":282.4807,"EPHEMERIS_TYPE":0,"CLASSIFICATION_TYPE":"U","NORAD_CAT_ID":63459,"ELEMENT_SET_NO":999,"REV_AT_EPOCH":5326,"BSTAR":0.00071430694,"MEAN_MOTION_DOT":0.00020849,"MEAN_MOTION_DDOT":0},{"OBJECT_NAME":"ELEKTRON 3","OBJECT_ID":"1964-038A","EPOCH":"2026-03-09T21:23:02.230656","MEAN_MOTION":9.21091579,"ECCENTRICITY":0.29393663,"INCLINATION":60.8253,"RA_OF_ASC_NODE":338.4207,"ARG_OF_PERICENTER":322.4187,"MEAN_ANOMALY":20.307,"EPHEMERIS_TYPE":0,"CLASSIFICATION_TYPE":"U","NORAD_CAT_ID":829,"ELEMENT_SET_NO":999,"REV_AT_EPOCH":630,"BSTAR":0.00049978056,"MEAN_MOTION_DOT":1.8e-5,"MEAN_MOTION_DDOT":0}]
